{
"type": "FeatureCollection",
"name": "helge_poly",
"crs": { "type": "name", "properties": { "name": "urn:ogc:def:crs:OGC:1.3:CRS84" } },
"features": [
{ "type": "Feature", "properties": { "Name": "", "Description": "" }, "geometry": { "type": "Polygon", "coordinates": [ [ [ 8.523121174944231, 47.430499523798659 ], [ 8.519529595860334, 47.430540710516816 ], [ 8.519533261152244, 47.429898180039196 ], [ 8.523119382109018, 47.429864602826761 ], [ 8.523121174944231, 47.430499523798659 ] ] ] } }
]
}
