{
"type": "FeatureCollection",
"name": "zofe",
"crs": { "type": "name", "properties": { "name": "urn:ogc:def:crs:OGC:1.3:CRS84" } },
"features": [
{ "type": "Feature", "properties": { "Name": "", "Description": "DEMO" }, "geometry": { "type": "Polygon", "coordinates": [ [ [ 8.515713961793592, 47.426045624426465 ], [ 8.517308345551927, 47.426040480565625 ], [ 8.517252938673584, 47.425190572266473 ], [ 8.515714157100495, 47.42522921466179 ], [ 8.515713961793592, 47.426045624426465 ] ] ] } },
{ "type": "Feature", "properties": { "Name": "", "Description": "ZOFE" }, "geometry": { "type": "Polygon", "coordinates": [ [ [ 8.518418296621439, 47.427017930653854 ], [ 8.519356672891984, 47.427014560851632 ], [ 8.51935595440105, 47.426587306890667 ], [ 8.518416296913147, 47.42659248771421 ], [ 8.518418296621439, 47.427017930653854 ] ] ] } }
]
}
