<kml xmlns="http://www.opengis.net/kml/2.2" xmlns:gx="http://www.google.com/kml/ext/2.2" xmlns:xsi="http://www.w3.org/2001/XMLSchema-instance" xsi:schemaLocation="http://www.opengis.net/kml/2.2 https://developers.google.com/kml/schema/kml22gx.xsd"><Document><name>Zeichnung</name><Placemark id="drawing_feature_1753369904394"><Style><LineStyle><color>ff0000ff</color><width>3</width></LineStyle><PolyStyle><color>660000ff</color></PolyStyle></Style><ExtendedData><Data name="type"><value>linepolygon</value></Data></ExtendedData><Polygon><outerBoundaryIs><LinearRing><coordinates>8.498718777258132,47.44186552237807 8.496007759119548,47.44004530644828 8.499564587212932,47.438419648687294 8.499813931323477,47.43946003778479 8.50042986356172,47.44111336449365 8.498718777258132,47.44186552237807</coordinates></LinearRing></outerBoundaryIs></Polygon></Placemark></Document></kml>