<kml xmlns="http://www.opengis.net/kml/2.2" xmlns:gx="http://www.google.com/kml/ext/2.2" xmlns:xsi="http://www.w3.org/2001/XMLSchema-instance" xsi:schemaLocation="http://www.opengis.net/kml/2.2 https://developers.google.com/kml/schema/kml22gx.xsd"><Document><name>Zeichnung</name><Placemark id="drawing_feature_1753369422392"><Style><LineStyle><color>ff0000ff</color><width>3</width></LineStyle><PolyStyle><color>660000ff</color></PolyStyle></Style><ExtendedData><Data name="type"><value>linepolygon</value></Data></ExtendedData><Polygon><outerBoundaryIs><LinearRing><coordinates>8.52465236615454,47.44135200237966 8.521154537295995,47.439603002414486 8.521535494751904,47.43917663791454 8.520885661743584,47.43787657671683 8.521250336441168,47.43774481363976 8.52270818667408,47.43772360792875 8.52284248032254,47.43666535247657 8.526361582684517,47.4367380073794 8.529159114458468,47.435277164352726 8.532446080114298,47.437058118671835 8.536252789935606,47.43974004714525 8.538497853676974,47.440639816837844 8.537587367725475,47.44183381898242 8.524970490510867,47.44166611330362 8.52465236615454,47.44135200237966</coordinates></LinearRing></outerBoundaryIs></Polygon></Placemark></Document></kml>