{
"type": "FeatureCollection",
"name": "Reckenholz_Lindenhof",
"crs": { "type": "name", "properties": { "name": "urn:ogc:def:crs:OGC:1.3:CRS84" } },
"features": [
{ "type": "Feature", "properties": { "Name": "", "Description": "" }, "geometry": { "type": "Polygon", "coordinates": [ [ [ 8.498718777258132, 47.441865522378073 ], [ 8.496007759119548, 47.440045306448283 ], [ 8.499564587212932, 47.438419648687294 ], [ 8.499813931323477, 47.439460037784791 ], [ 8.50042986356172, 47.441113364493653 ], [ 8.498718777258132, 47.441865522378073 ] ] ] } }
]
}
