{
"type": "FeatureCollection",
"name": "Reckenholz_core",
"crs": { "type": "name", "properties": { "name": "urn:ogc:def:crs:OGC:1.3:CRS84" } },
"features": [
{ "type": "Feature", "properties": { "Name": "", "Description": "" }, "geometry": { "type": "Polygon", "coordinates": [ [ [ 8.513507596372376, 47.430437362561186 ], [ 8.512973110739782, 47.4282435737356 ], [ 8.513488714807746, 47.427024036154442 ], [ 8.514561932696694, 47.426172555094894 ], [ 8.515849387690587, 47.425034042730005 ], [ 8.517887176250115, 47.425180890722871 ], [ 8.520658657489198, 47.425697892499748 ], [ 8.525764270764329, 47.425592730150804 ], [ 8.52651943066893, 47.431218257755532 ], [ 8.517665116926613, 47.432197007562763 ], [ 8.513659003060313, 47.430999216216776 ], [ 8.513507596372376, 47.430437362561186 ] ] ] } }
]
}
