<kml xmlns="http://www.opengis.net/kml/2.2" xmlns:gx="http://www.google.com/kml/ext/2.2" xmlns:xsi="http://www.w3.org/2001/XMLSchema-instance" xsi:schemaLocation="http://www.opengis.net/kml/2.2 https://developers.google.com/kml/schema/kml22gx.xsd"><Document><name>Zeichnung</name><Placemark id="drawing_feature_1753368569378"><Style><LineStyle><color>ff0000ff</color><width>3</width></LineStyle><PolyStyle><color>660000ff</color></PolyStyle></Style><ExtendedData><Data name="type"><value>linepolygon</value></Data></ExtendedData><Polygon><outerBoundaryIs><LinearRing><coordinates>8.513507596372376,47.430437362561186 8.512973110739782,47.4282435737356 8.513488714807746,47.42702403615444 8.514561932696694,47.426172555094894 8.515849387690587,47.425034042730005 8.517887176250115,47.42518089072287 8.520658657489198,47.42569789249975 8.525764270764329,47.425592730150804 8.52651943066893,47.43121825775553 8.517665116926613,47.43219700756276 8.513659003060313,47.430999216216776 8.513507596372376,47.430437362561186</coordinates></LinearRing></outerBoundaryIs></Polygon></Placemark></Document></kml>