{
"type": "FeatureCollection",
"name": "Reckenholz_Katzenrüti",
"crs": { "type": "name", "properties": { "name": "urn:ogc:def:crs:OGC:1.3:CRS84" } },
"features": [
{ "type": "Feature", "properties": { "Name": "", "Description": "" }, "geometry": { "type": "Polygon", "coordinates": [ [ [ 8.510399970597851, 47.437016999362044 ], [ 8.50463824888512, 47.43658011399986 ], [ 8.503924488799107, 47.433838077673308 ], [ 8.510478036784303, 47.431744889986867 ], [ 8.513271388193786, 47.434659795258874 ], [ 8.510621057552036, 47.436385459766441 ], [ 8.510399970597851, 47.437016999362044 ] ] ] } }
]
}
