<kml xmlns="http://www.opengis.net/kml/2.2" xmlns:gx="http://www.google.com/kml/ext/2.2" xmlns:xsi="http://www.w3.org/2001/XMLSchema-instance" xsi:schemaLocation="http://www.opengis.net/kml/2.2 https://developers.google.com/kml/schema/kml22gx.xsd"><Document><name>Zeichnung</name><Placemark id="drawing_feature_1753369697102"><Style><LineStyle><color>ff0000ff</color><width>3</width></LineStyle><PolyStyle><color>660000ff</color></PolyStyle></Style><ExtendedData><Data name="type"><value>linepolygon</value></Data></ExtendedData><Polygon><outerBoundaryIs><LinearRing><coordinates>8.51039997059785,47.437016999362044 8.50463824888512,47.43658011399986 8.503924488799107,47.43383807767331 8.510478036784303,47.43174488998687 8.513271388193786,47.434659795258874 8.510621057552036,47.43638545976644 8.51039997059785,47.437016999362044</coordinates></LinearRing></outerBoundaryIs></Polygon></Placemark></Document></kml>