{
"type": "FeatureCollection",
"name": "Reckenholz_Altwi",
"crs": { "type": "name", "properties": { "name": "urn:ogc:def:crs:OGC:1.3:CRS84" } },
"features": [
{ "type": "Feature", "properties": { "Name": "", "Description": "" }, "geometry": { "type": "Polygon", "coordinates": [ [ [ 8.524652366154539, 47.441352002379659 ], [ 8.521154537295995, 47.439603002414486 ], [ 8.521535494751904, 47.439176637914542 ], [ 8.520885661743584, 47.437876576716832 ], [ 8.521250336441168, 47.43774481363976 ], [ 8.52270818667408, 47.437723607928753 ], [ 8.52284248032254, 47.436665352476567 ], [ 8.526361582684517, 47.436738007379397 ], [ 8.529159114458468, 47.435277164352726 ], [ 8.532446080114298, 47.437058118671835 ], [ 8.536252789935606, 47.43974004714525 ], [ 8.538497853676974, 47.440639816837844 ], [ 8.537587367725475, 47.441833818982417 ], [ 8.524970490510867, 47.441666113303619 ], [ 8.524652366154539, 47.441352002379659 ] ] ] } }
]
}
