{
"type": "FeatureCollection",
"name": "Tänikon",
"crs": { "type": "name", "properties": { "name": "urn:ogc:def:crs:OGC:1.3:CRS84" } },
"features": [
{ "type": "Feature", "properties": { "Name": "", "Description": "" }, "geometry": { "type": "Polygon", "coordinates": [ [ [ 8.919550366045792, 47.493960788866609 ], [ 8.917851900524468, 47.491081528510151 ], [ 8.915284519157886, 47.487822978352199 ], [ 8.909462885576142, 47.486414392391367 ], [ 8.905306569134511, 47.483611848849435 ], [ 8.902473859224898, 47.482345702277172 ], [ 8.90223899987555, 47.481160869603649 ], [ 8.901298004004758, 47.4775865144465 ], [ 8.902306439109612, 47.47503825588575 ], [ 8.915959936782391, 47.473951030960123 ], [ 8.924073684596625, 47.49415409195791 ], [ 8.919550366045792, 47.493960788866609 ] ] ] } }
]
}
