<kml xmlns="http://www.opengis.net/kml/2.2" xmlns:gx="http://www.google.com/kml/ext/2.2" xmlns:xsi="http://www.w3.org/2001/XMLSchema-instance" xsi:schemaLocation="http://www.opengis.net/kml/2.2 https://developers.google.com/kml/schema/kml22gx.xsd"><Document><name>Zeichnung</name><Placemark id="drawing_feature_1753370171447"><Style><LineStyle><color>ff0000ff</color><width>3</width></LineStyle><PolyStyle><color>660000ff</color></PolyStyle></Style><ExtendedData><Data name="type"><value>linepolygon</value></Data></ExtendedData><Polygon><outerBoundaryIs><LinearRing><coordinates>8.919550366045792,47.49396078886661 8.917851900524468,47.49108152851015 8.915284519157886,47.4878229783522 8.909462885576142,47.48641439239137 8.905306569134511,47.483611848849435 8.902473859224898,47.48234570227717 8.90223899987555,47.48116086960365 8.901298004004758,47.4775865144465 8.902306439109612,47.47503825588575 8.915959936782391,47.47395103096012 8.924073684596625,47.49415409195791 8.919550366045792,47.49396078886661</coordinates></LinearRing></outerBoundaryIs></Polygon></Placemark></Document></kml>